{"fetched_at":"2026-03-29T02:12:04Z","count":15717,"tles":[{"name":"STARLINK-36858","line1":"1 68021U 26040G   26083.53835390  .00276588  00000+0  17848-2 0  9999","line2":"2 68021  97.2853  32.8877 0001694  78.8231 281.3225 15.75331784  3704","category":"Starlink"}]}